[{"OBJECT_NAME":"TIANMU-1 10","OBJECT_ID":"2023-101D","EPOCH":"2026-03-09T23:06:46.939392","MEAN_MOTION":15.2921896,"ECCENTRICITY":0.00069292,"INCLINATION":97.2749,"RA_OF_ASC_NODE":122.1027,"ARG_OF_PERICENTER":133.6162,"MEAN_ANOMALY":226.5654,"EPHEMERIS_TYPE":0,"CLASSIFICATION_TYPE":"U","NORAD_CAT_ID":57402,"ELEMENT_SET_NO":999,"REV_AT_EPOCH":14647,"BSTAR":0.00032238884,"MEAN_MOTION_DOT":9.075e-5,"MEAN_MOTION_DDOT":0},{"OBJECT_NAME":"STARLINK-32328","OBJECT_ID":"2025-003C","EPOCH":"2026-03-09T00:06:19.314144","MEAN_MOTION":15.2758813,"ECCENTRICITY":0.00014278,"INCLINATION":43.0025,"RA_OF_ASC_NODE":293.1087,"ARG_OF_PERICENTER":259.7364,"MEAN_ANOMALY":100.3326,"EPHEMERIS_TYPE":0,"CLASSIFICATION_TYPE":"U","NORAD_CAT_ID":62489,"ELEMENT_SET_NO":999,"REV_AT_EPOCH":6656,"BSTAR":0.0011468565,"MEAN_MOTION_DOT":0.00031439,"MEAN_MOTION_DDOT":0}]
